{
  "type": "FeatureCollection",
  "features": [
    {
      "type": "Feature",
      "properties": {
        "norad_id": 43208,
        "name": "BEIDOU-3 M3 (C21)",
        "group": "beidou",
        "lat": 53.68733817399279,
        "lon": -174.6127813268847,
        "alt_km": 21536.45014300314,
        "timestamp": "2025-12-02T21:34:01.536375+00:00",
        "meta_object_name": "BEIDOU-3 M3 (C21)",
        "meta_object_id": "2018-018B",
        "meta_epoch": "2025-12-02T04:55:31.813248",
        "meta_mean_motion": 1.86230891,
        "meta_eccentricity": 0.0006234,
        "meta_inclination": 56.4762,
        "meta_ra_of_asc_node": 69.6575,
        "meta_arg_of_pericenter": 317.6404,
        "meta_mean_anomaly": 42.3135,
        "meta_ephemeris_type": 0,
        "meta_classification_type": "U",
        "meta_norad_cat_id": 43208,
        "meta_element_set_no": 999,
        "meta_rev_at_epoch": 5307,
        "meta_bstar": 0,
        "meta_mean_motion_dot": -4.5e-07,
        "meta_mean_motion_ddot": 0,
        "tle_line1": "1 43208U 18018B   25336.20522932 -.00000045  00000+0  00000+0 0  9997",
        "tle_line2": "2 43208  56.4762  69.6575 0006234 317.6404  42.3135  1.86230891 53078"
      },
      "geometry": {
        "type": "Point",
        "coordinates": [
          -174.6127813268847,
          53.68733817399279
        ]
      }
    },
    {
      "type": "Feature",
      "properties": {
        "norad_id": 43245,
        "name": "BEIDOU-3 M9 (C29)",
        "group": "beidou",
        "lat": -31.4843847781432,
        "lon": -79.24699732769383,
        "alt_km": 21528.93277589213,
        "timestamp": "2025-12-02T21:34:01.536386+00:00",
        "meta_object_name": "BEIDOU-3 M9 (C29)",
        "meta_object_id": "2018-029A",
        "meta_epoch": "2025-12-01T08:20:14.784576",
        "meta_mean_motion": 1.86227904,
        "meta_eccentricity": 0.00017985,
        "meta_inclination": 54.3765,
        "meta_ra_of_asc_node": 306.8658,
        "meta_arg_of_pericenter": 272.1738,
        "meta_mean_anomaly": 87.7976,
        "meta_ephemeris_type": 0,
        "meta_classification_type": "U",
        "meta_norad_cat_id": 43245,
        "meta_element_set_no": 999,
        "meta_rev_at_epoch": 5221,
        "meta_bstar": 0,
        "meta_mean_motion_dot": -5.8e-07,
        "meta_mean_motion_ddot": 0,
        "tle_line1": "1 43245U 18029A   25335.34739334 -.00000058  00000+0  00000+0 0  9994",
        "tle_line2": "2 43245  54.3765 306.8658 0001798 272.1738  87.7976  1.86227904 52214"
      },
      "geometry": {
        "type": "Point",
        "coordinates": [
          -79.24699732769383,
          -31.4843847781432
        ]
      }
    },
    {
      "type": "Feature",
      "properties": {
        "norad_id": 43246,
        "name": "BEIDOU-3 M10 (C30)",
        "group": "beidou",
        "lat": 2.7581056783310602,
        "lon": -51.20253738506619,
        "alt_km": 21517.28482540302,
        "timestamp": "2025-12-02T21:34:01.536397+00:00",
        "meta_object_name": "BEIDOU-3 M10 (C30)",
        "meta_object_id": "2018-029B",
        "meta_epoch": "2025-11-29T03:14:13.986240",
        "meta_mean_motion": 1.86228967,
        "meta_eccentricity": 0.00039142,
        "meta_inclination": 54.3758,
        "meta_ra_of_asc_node": 306.9698,
        "meta_arg_of_pericenter": 358.6776,
        "meta_mean_anomaly": 1.3207,
        "meta_ephemeris_type": 0,
        "meta_classification_type": "U",
        "meta_norad_cat_id": 43246,
        "meta_element_set_no": 999,
        "meta_rev_at_epoch": 5215,
        "meta_bstar": 0,
        "meta_mean_motion_dot": -4.6e-07,
        "meta_mean_motion_ddot": 0,
        "tle_line1": "1 43246U 18029B   25333.13488410 -.00000046  00000+0  00000+0 0  9993",
        "tle_line2": "2 43246  54.3758 306.9698 0003914 358.6776   1.3207  1.86228967 52158"
      },
      "geometry": {
        "type": "Point",
        "coordinates": [
          -51.20253738506619,
          2.7581056783310602
        ]
      }
    },
    {
      "type": "Feature",
      "properties": {
        "norad_id": 43539,
        "name": "BEIDOU-2 IGSO-7 (C16)",
        "group": "beidou",
        "lat": -13.77837886027301,
        "lon": 154.91134955801257,
        "alt_km": 35908.58497343972,
        "timestamp": "2025-12-02T21:34:01.536408+00:00",
        "meta_object_name": "BEIDOU-2 IGSO-7 (C16)",
        "meta_object_id": "2018-057A",
        "meta_epoch": "2025-12-01T22:54:18.573696",
        "meta_mean_motion": 1.00259974,
        "meta_eccentricity": 0.00924716,
        "meta_inclination": 55.1727,
        "meta_ra_of_asc_node": 164.7667,
        "meta_arg_of_pericenter": 235.1548,
        "meta_mean_anomaly": 126.2091,
        "meta_ephemeris_type": 0,
        "meta_classification_type": "U",
        "meta_norad_cat_id": 43539,
        "meta_element_set_no": 999,
        "meta_rev_at_epoch": 2715,
        "meta_bstar": 0,
        "meta_mean_motion_dot": -1.8e-07,
        "meta_mean_motion_ddot": 0,
        "tle_line1": "1 43539U 18057A   25335.95438164 -.00000018  00000+0  00000+0 0  9991",
        "tle_line2": "2 43539  55.1727 164.7667 0092471 235.1548 126.2091  1.00259974 27154"
      },
      "geometry": {
        "type": "Point",
        "coordinates": [
          154.91134955801257,
          -13.77837886027301
        ]
      }
    },
    {
      "type": "Feature",
      "properties": {
        "norad_id": 43581,
        "name": "BEIDOU-3 M5 (C23)",
        "group": "beidou",
        "lat": -25.955078560201414,
        "lon": 29.640285969406218,
        "alt_km": 21536.021920410487,
        "timestamp": "2025-12-02T21:34:01.536419+00:00",
        "meta_object_name": "BEIDOU-3 M5 (C23)",
        "meta_object_id": "2018-062A",
        "meta_epoch": "2025-11-30T23:17:32.661024",
        "meta_mean_motion": 1.8622853,
        "meta_eccentricity": 0.0002124,
        "meta_inclination": 54.0891,
        "meta_ra_of_asc_node": 189.0442,
        "meta_arg_of_pericenter": 349.7703,
        "meta_mean_anomaly": 10.3183,
        "meta_ephemeris_type": 0,
        "meta_classification_type": "U",
        "meta_norad_cat_id": 43581,
        "meta_element_set_no": 999,
        "meta_rev_at_epoch": 4994,
        "meta_bstar": 0,
        "meta_mean_motion_dot": 1.17e-06,
        "meta_mean_motion_ddot": 0,
        "tle_line1": "1 43581U 18062A   25334.97051691  .00000117  00000+0  00000+0 0  9990",
        "tle_line2": "2 43581  54.0891 189.0442 0002124 349.7703  10.3183  1.86228530 49947"
      },
      "geometry": {
        "type": "Point",
        "coordinates": [
          29.640285969406218,
          -25.955078560201414
        ]
      }
    },
    {
      "type": "Feature",
      "properties": {
        "norad_id": 43582,
        "name": "BEIDOU-3 M6 (C24)",
        "group": "beidou",
        "lat": -41.89641198064623,
        "lon": 148.43037471467662,
        "alt_km": 21537.169556411445,
        "timestamp": "2025-12-02T21:34:01.536430+00:00",
        "meta_object_name": "BEIDOU-3 M6 (C24)",
        "meta_object_id": "2018-062B",
        "meta_epoch": "2025-11-29T18:14:01.707936",
        "meta_mean_motion": 1.86229617,
        "meta_eccentricity": 0.00076529,
        "meta_inclination": 54.0888,
        "meta_ra_of_asc_node": 189.0746,
        "meta_arg_of_pericenter": 45.4041,
        "meta_mean_anomaly": 314.7474,
        "meta_ephemeris_type": 0,
        "meta_classification_type": "U",
        "meta_norad_cat_id": 43582,
        "meta_element_set_no": 999,
        "meta_rev_at_epoch": 4992,
        "meta_bstar": 0,
        "meta_mean_motion_dot": 1.07e-06,
        "meta_mean_motion_ddot": 0,
        "tle_line1": "1 43582U 18062B   25333.75974199  .00000107  00000+0  00000+0 0  9992",
        "tle_line2": "2 43582  54.0888 189.0746 0007652  45.4041 314.7474  1.86229617 49926"
      },
      "geometry": {
        "type": "Point",
        "coordinates": [
          148.43037471467662,
          -41.89641198064623
        ]
      }
    },
    {
      "type": "Feature",
      "properties": {
        "norad_id": 43602,
        "name": "BEIDOU-3 M12 (C26)",
        "group": "beidou",
        "lat": -11.154587125167897,
        "lon": 179.51981142769932,
        "alt_km": 21515.132733987855,
        "timestamp": "2025-12-02T21:34:01.536441+00:00",
        "meta_object_name": "BEIDOU-3 M12 (C26)",
        "meta_object_id": "2018-067A",
        "meta_epoch": "2025-12-01T20:17:11.919840",
        "meta_mean_motion": 1.86227624,
        "meta_eccentricity": 0.00091432,
        "meta_inclination": 54.1831,
        "meta_ra_of_asc_node": 187.7331,
        "meta_arg_of_pericenter": 40.4315,
        "meta_mean_anomaly": 319.7307,
        "meta_ephemeris_type": 0,
        "meta_classification_type": "U",
        "meta_norad_cat_id": 43602,
        "meta_element_set_no": 999,
        "meta_rev_at_epoch": 4944,
        "meta_bstar": 0,
        "meta_mean_motion_dot": 1.22e-06,
        "meta_mean_motion_ddot": 0,
        "tle_line1": "1 43602U 18067A   25335.84527685  .00000122  00000+0  00000+0 0  9993",
        "tle_line2": "2 43602  54.1831 187.7331 0009143  40.4315 319.7307  1.86227624 49442"
      },
      "geometry": {
        "type": "Point",
        "coordinates": [
          179.51981142769932,
          -11.154587125167897
        ]
      }
    }
  ]
}